[
    {
        "Altitude(m)": 705263.8269826184,
        "Argument of Periapsis(deg)": 0.010251109067964361,
        "Eccentricity": 0.0,
        "Inclination(deg)": 45.0,
        "Latitude(deg)": 35.555558270168106,
        "Longitude(deg)": -126.00302324455268,
        "Mean Anomaly(deg)": 124.92539498273273,
        "RAAN(deg)": 199.99032325268763,
        "Satellite Name": "Constellation 1 887",
        "Satellite Number": 887,
        "Semi-Major Axis(m)": 7083131.272910544,
        "Time(s)": 171
    },
    {
        "Altitude(m)": 705257.9234737117,
        "Argument of Periapsis(deg)": 0.010311057074209765,
        "Eccentricity": 0.0,
        "Inclination(deg)": 45.0,
        "Latitude(deg)": 35.52523939735584,
        "Longitude(deg)": -125.94253382989321,
        "Mean Anomaly(deg)": 124.98609612298267,
        "RAAN(deg)": 199.99026666352205,
        "Satellite Name": "Constellation 1 887",
        "Satellite Number": 887,
        "Semi-Major Axis(m)": 7083131.272910544,
        "Time(s)": 172
    },
    {
        "Altitude(m)": 705252.0177689197,
        "Argument of Periapsis(deg)": 0.010371005080455171,
        "Eccentricity": 0.0,
        "Inclination(deg)": 45.0,
        "Latitude(deg)": 35.49488581159394,
        "Longitude(deg)": -125.8820929843909,
        "Mean Anomaly(deg)": 125.0467972632325,
        "RAAN(deg)": 199.9902100743565,
        "Satellite Name": "Constellation 1 887",
        "Satellite Number": 887,
        "Semi-Major Axis(m)": 7083131.272910544,
        "Time(s)": 173
    },
    {
        "Altitude(m)": 705246.1099057004,
        "Argument of Periapsis(deg)": 0.010430953086700577,
        "Eccentricity": 0.0,
        "Inclination(deg)": 45.0,
        "Latitude(deg)": 35.46449757699452,
        "Longitude(deg)": -125.82170067245522,
        "Mean Anomaly(deg)": 125.10749840348247,
        "RAAN(deg)": 199.9901534851909,
        "Satellite Name": "Constellation 1 887",
        "Satellite Number": 887,
        "Semi-Major Axis(m)": 7083131.272910544,
        "Time(s)": 174
    },
    {
        "Altitude(m)": 705240.1999215415,
        "Argument of Periapsis(deg)": 0.010490901092945983,
        "Eccentricity": 0.0,
        "Inclination(deg)": 45.0,
        "Latitude(deg)": 35.434074757609125,
        "Longitude(deg)": -125.76135685827427,
        "Mean Anomaly(deg)": 125.16819954373237,
        "RAAN(deg)": 199.99009689602534,
        "Satellite Name": "Constellation 1 887",
        "Satellite Number": 887,
        "Semi-Major Axis(m)": 7083131.272910544,
        "Time(s)": 175
    },
    {
        "Altitude(m)": 705234.2878539467,
        "Argument of Periapsis(deg)": 0.010550849099191389,
        "Eccentricity": 0.0,
        "Inclination(deg)": 45.0,
        "Latitude(deg)": 35.40361741742832,
        "Longitude(deg)": -125.70106150581533,
        "Mean Anomaly(deg)": 125.22890068398225,
        "RAAN(deg)": 199.99004030685975,
        "Satellite Name": "Constellation 1 887",
        "Satellite Number": 887,
        "Semi-Major Axis(m)": 7083131.272910544,
        "Time(s)": 176
    },
    {
        "Altitude(m)": 705228.3737404575,
        "Argument of Periapsis(deg)": 0.010610797105436795,
        "Eccentricity": 0.0,
        "Inclination(deg)": 45.0,
        "Latitude(deg)": 35.373125620381515,
        "Longitude(deg)": -125.64081457882634,
        "Mean Anomaly(deg)": 125.28960182423214,
        "RAAN(deg)": 199.9899837176942,
        "Satellite Name": "Constellation 1 887",
        "Satellite Number": 887,
        "Semi-Major Axis(m)": 7083131.272910544,
        "Time(s)": 177
    },
    {
        "Altitude(m)": 705222.4576186358,
        "Argument of Periapsis(deg)": 0.0106707451116822,
        "Eccentricity": 0.0,
        "Inclination(deg)": 45.0,
        "Latitude(deg)": 35.342599430337074,
        "Longitude(deg)": -125.58061620893447,
        "Mean Anomaly(deg)": 125.350302964482,
        "RAAN(deg)": 199.98992712852865,
        "Satellite Name": "Constellation 1 887",
        "Satellite Number": 887,
        "Semi-Major Axis(m)": 7083131.272910544,
        "Time(s)": 178
    },
    {
        "Altitude(m)": 705216.5395260701,
        "Argument of Periapsis(deg)": 0.010730693117927606,
        "Eccentricity": 0.0,
        "Inclination(deg)": 45.0,
        "Latitude(deg)": 35.312038911101006,
        "Longitude(deg)": -125.52046602325898,
        "Mean Anomaly(deg)": 125.41100410473199,
        "RAAN(deg)": 199.98987053936304,
        "Satellite Name": "Constellation 1 887",
        "Satellite Number": 887,
        "Semi-Major Axis(m)": 7083131.272910544,
        "Time(s)": 179
    },
    {
        "Altitude(m)": 705210.6195003714,
        "Argument of Periapsis(deg)": 0.01079064112417301,
        "Eccentricity": 0.0,
        "Inclination(deg)": 45.0,
        "Latitude(deg)": 35.28144412641843,
        "Longitude(deg)": -125.46036415299484,
        "Mean Anomaly(deg)": 125.47170524498186,
        "RAAN(deg)": 199.9898139501975,
        "Satellite Name": "Constellation 1 887",
        "Satellite Number": 887,
        "Semi-Major Axis(m)": 7083131.272910544,
        "Time(s)": 180
    },
    {
        "Altitude(m)": 705204.6975791848,
        "Argument of Periapsis(deg)": 0.010850589130418416,
        "Eccentricity": 0.0,
        "Inclination(deg)": 45.0,
        "Latitude(deg)": 35.250815139972154,
        "Longitude(deg)": -125.40031056102555,
        "Mean Anomaly(deg)": 125.53240638523172,
        "RAAN(deg)": 199.9897573610319,
        "Satellite Name": "Constellation 1 887",
        "Satellite Number": 887,
        "Semi-Major Axis(m)": 7083131.272910544,
        "Time(s)": 181
    },
    {
        "Altitude(m)": 705198.7738001728,
        "Argument of Periapsis(deg)": 0.01091053713666382,
        "Eccentricity": 0.0,
        "Inclination(deg)": 45.0,
        "Latitude(deg)": 35.2201520153829,
        "Longitude(deg)": -125.34030521002191,
        "Mean Anomaly(deg)": 125.59310752548168,
        "RAAN(deg)": 199.98970077186635,
        "Satellite Name": "Constellation 1 887",
        "Satellite Number": 887,
        "Semi-Major Axis(m)": 7083131.272910544,
        "Time(s)": 182
    },
    {
        "Altitude(m)": 705192.8482010238,
        "Argument of Periapsis(deg)": 0.010970485142909228,
        "Eccentricity": 0.0,
        "Inclination(deg)": 45.0,
        "Latitude(deg)": 35.18945481620902,
        "Longitude(deg)": -125.28034806244277,
        "Mean Anomaly(deg)": 125.65380866573153,
        "RAAN(deg)": 199.98964418270077,
        "Satellite Name": "Constellation 1 887",
        "Satellite Number": 887,
        "Semi-Major Axis(m)": 7083131.272910544,
        "Time(s)": 183
    },
    {
        "Altitude(m)": 705186.9208194596,
        "Argument of Periapsis(deg)": 0.011030433149154634,
        "Eccentricity": 0.0,
        "Inclination(deg)": 45.0,
        "Latitude(deg)": 35.15872360594638,
        "Longitude(deg)": -125.22043908053668,
        "Mean Anomaly(deg)": 125.71450980598146,
        "RAAN(deg)": 199.9895875935352,
        "Satellite Name": "Constellation 1 887",
        "Satellite Number": 887,
        "Semi-Major Axis(m)": 7083131.272910544,
        "Time(s)": 184
    },
    {
        "Altitude(m)": 705180.9916932128,
        "Argument of Periapsis(deg)": 0.01109038115540004,
        "Eccentricity": 0.0,
        "Inclination(deg)": 45.0,
        "Latitude(deg)": 35.12795844802836,
        "Longitude(deg)": -125.16057839443995,
        "Mean Anomaly(deg)": 125.7752109462313,
        "RAAN(deg)": 199.98953100436964,
        "Satellite Name": "Constellation 1 887",
        "Satellite Number": 887,
        "Semi-Major Axis(m)": 7083131.272910544,
        "Time(s)": 185
    },
    {
        "Altitude(m)": 705175.0608600554,
        "Argument of Periapsis(deg)": 0.011150329161645444,
        "Eccentricity": 0.0,
        "Inclination(deg)": 45.0,
        "Latitude(deg)": 35.09715940582466,
        "Longitude(deg)": -125.10076562978998,
        "Mean Anomaly(deg)": 125.83591208648127,
        "RAAN(deg)": 199.98947441520406,
        "Satellite Name": "Constellation 1 887",
        "Satellite Number": 887,
        "Semi-Major Axis(m)": 7083131.272910544,
        "Time(s)": 186
    },
    {
        "Altitude(m)": 705169.1283577718,
        "Argument of Periapsis(deg)": 0.01121027716789085,
        "Eccentricity": 0.0,
        "Inclination(deg)": 45.0,
        "Latitude(deg)": 35.06632654264274,
        "Longitude(deg)": -125.04100091630853,
        "Mean Anomaly(deg)": 125.89661322673116,
        "RAAN(deg)": 199.9894178260385,
        "Satellite Name": "Constellation 1 887",
        "Satellite Number": 887,
        "Semi-Major Axis(m)": 7083131.272910544,
        "Time(s)": 187
    },
    {
        "Altitude(m)": 705163.1942241756,
        "Argument of Periapsis(deg)": 0.011270225174136258,
        "Eccentricity": 0.0,
        "Inclination(deg)": 45.0,
        "Latitude(deg)": 35.03545992172641,
        "Longitude(deg)": -124.9812842154147,
        "Mean Anomaly(deg)": 125.95731436698102,
        "RAAN(deg)": 199.98936123687292,
        "Satellite Name": "Constellation 1 887",
        "Satellite Number": 887,
        "Semi-Major Axis(m)": 7083131.272910544,
        "Time(s)": 188
    },
    {
        "Altitude(m)": 705157.2584971089,
        "Argument of Periapsis(deg)": 0.011330173180381662,
        "Eccentricity": 0.0,
        "Inclination(deg)": 45.0,
        "Latitude(deg)": 35.00455960625603,
        "Longitude(deg)": -124.92161548832348,
        "Mean Anomaly(deg)": 126.01801550723091,
        "RAAN(deg)": 199.98930464770737,
        "Satellite Name": "Constellation 1 887",
        "Satellite Number": 887,
        "Semi-Major Axis(m)": 7083131.272910544,
        "Time(s)": 189
    }
]